{"type":"FeatureCollection","source":"OCHA HDX COD-AB Afghanistan administrative boundaries, ADM1 province layer","generated_by":"scripts/convert_adm1_shp.js","features":[{"type":"Feature","properties":{"adm1_name":"Badakhshan","adm1_name1":"بدخشان","adm1_name2":"","adm1_name3":"","adm1_pcode":"AF17","adm0_name":"Afghanistan","adm0_name1":"افغانستان","adm0_name2":"","adm0_name3":"","adm0_pcode":"AF","valid_on":"20250601","valid_to":"00000000","area_sqkm":43367.48562413,"version":"v03","lang":"en","lang1":"prs","lang2":"","lang3":"","adm1_ref_n":"","regionname":"North Eastern","regioncode":"NE","center_lat":null,"center_lon":null,"region_nam":"سهیل ختیځه حوزه"},"geometry":{"type":"Polygon","coordinates":[[[70.474284,36.29313],[70.419407,36.324441],[70.189016,36.331671],[70.087461,36.42982],[70.118058,36.4846],[70.11382,36.571305],[70.094546,36.619631],[70.020843,36.660249],[70.044756,36.667994],[70.043543,36.706434],[69.983473,36.782851],[70.009385,36.790025],[70.042667,36.965436],[70.106328,36.998826],[70.131169,37.048452],[70.091719,37.094466],[70.007446,37.114621],[70.052139,37.163354],[70.009833,37.288913],[70.034235,37.369645],[70.074873,37.385936],[70.070676,37.423184],[69.962174,37.380659],[70.010844,37.486334],[70.077741,37.537398],[70.172044,37.530374],[70.215287,37.605499],[70.266261,37.610438],[70.261636,37.645613],[70.303376,37.69249],[70.280093,37.815087],[70.187796,37.846446],[70.171824,37.931393],[70.270512,37.939353],[70.261641,37.978871],[70.285966,37.969826],[70.364828,38.055005],[70.505176,38.122048],[70.544656,38.243153],[70.605038,38.282976],[70.610882,38.347263],[70.685754,38.364605],[70.675382,38.406639],[70.755782,38.426717],[70.770965,38.456083],[70.848669,38.438323],[70.881492,38.469217],[70.925191,38.429903],[70.958752,38.441045],[70.946284,38.476451],[70.990199,38.49069],[71.056922,38.398193],[71.104619,38.42236],[71.224497,38.321468],[71.329182,38.303574],[71.334286,38.270535],[71.365552,38.266359],[71.376199,38.160826],[71.283834,38.041951],[71.257121,37.923127],[71.297882,37.931801],[71.332211,37.885418],[71.502539,37.952021],[71.590477,37.921982],[71.595391,37.805493],[71.531613,37.765238],[71.550769,37.71346],[71.493948,37.54183],[71.526527,37.479624],[71.476757,37.401774],[71.507055,37.313355],[71.455702,37.214282],[71.429116,37.072137],[71.566754,36.763317],[71.676529,36.671536],[71.843206,36.680897],[72.019901,36.811902],[72.343868,36.989295],[72.677876,37.0221],[72.815696,37.232161],[73.093459,37.324106],[73.148911,37.40288],[73.215521,37.405984],[73.306133,37.46369],[73.372523,37.441854],[73.512747,37.475087],[73.649678,37.435264],[73.775374,37.439666],[73.774681,37.339645],[73.655321,37.314047],[73.617434,37.270881],[73.652091,37.237111],[73.687094,37.253897],[73.757905,37.221861],[73.828643,37.226338],[73.890842,37.276649],[74.016012,37.291294],[74.065997,37.326307],[74.197689,37.336002],[74.252062,37.374958],[74.240499,37.414596],[74.31687,37.399091],[74.362586,37.42438],[74.418204,37.38904],[74.466173,37.426633],[74.56632,37.372764],[74.689996,37.405916],[74.83159,37.334265],[74.889508,37.251342],[74.885683,37.221032],[74.814056,37.214213],[74.749586,37.285727],[74.663308,37.23636],[74.630678,37.265045],[74.570548,37.233092],[74.501739,37.239854],[74.456768,37.142079],[74.491088,37.116607],[74.495146,37.064479],[74.533692,37.076708],[74.561419,37.038528],[74.516448,37.011055],[74.538795,36.961645],[74.426393,37.010998],[74.415066,36.976312],[74.346989,36.961435],[74.294805,36.913026],[74.236985,36.894598],[74.176021,36.916413],[74.117457,36.837962],[73.972964,36.835482],[73.842954,36.925311],[73.813763,36.890371],[73.690912,36.91543],[73.60105,36.908632],[73.5421,36.872219],[73.479306,36.89713],[73.302521,36.86803],[73.147927,36.894411],[73.039061,36.858997],[72.956326,36.876688],[72.890372,36.839669],[72.65322,36.851836],[72.562529,36.830566],[72.500747,36.778261],[72.247747,36.752504],[72.176717,36.705639],[72.197229,36.656547],[72.094161,36.646799],[72.07824,36.592921],[71.935919,36.54623],[71.916535,36.508884],[71.805348,36.503516],[71.828191,36.432931],[71.806604,36.399866],[71.637498,36.476679],[71.616848,36.402837],[71.557998,36.372664],[71.590157,36.347287],[71.575809,36.327228],[71.524127,36.334331],[71.434853,36.232385],[71.2501,36.129804],[71.194701,36.038897],[71.123848,36.00652],[71.064876,35.86746],[71.01687,35.851863],[71.027592,35.801311],[70.983915,35.759361],[71.013845,35.741795],[71.016181,35.689381],[70.951268,35.619497],[70.879444,35.636835],[70.869237,35.577477],[70.895428,35.524238],[70.865013,35.476116],[70.744196,35.494111],[70.686345,35.546578],[70.636406,35.515496],[70.646102,35.464546],[70.547266,35.448128],[70.533822,35.523795],[70.559882,35.531741],[70.560769,35.584495],[70.504028,35.626536],[70.49807,35.682869],[70.461288,35.67325],[70.377592,35.716902],[70.300109,35.653144],[70.252728,35.660342],[70.281966,35.752338],[70.268308,35.828998],[70.447938,35.989598],[70.422674,36.037799],[70.454898,36.11672],[70.489162,36.129808],[70.474289,36.292999],[70.474284,36.29313]]]}},{"type":"Feature","properties":{"adm1_name":"Samangan","adm1_name1":"سمنگان","adm1_name2":"","adm1_name3":"","adm1_pcode":"AF20","adm0_name":"Afghanistan","adm0_name1":"افغانستان","adm0_name2":"","adm0_name3":"","adm0_pcode":"AF","valid_on":"20250601","valid_to":"00000000","area_sqkm":16655.75250659,"version":"v03","lang":"en","lang1":"prs","lang2":"","lang3":"","adm1_ref_n":"","regionname":"Northern","regioncode":"NR","center_lat":null,"center_lon":null,"region_nam":"سهیلی حوزه"},"geometry":{"type":"Polygon","coordinates":[[[68.154859,35.703062],[68.13558,35.633027],[68.209976,35.59286],[68.105397,35.467652],[67.910798,35.445249],[67.893259,35.479097],[67.816139,35.481775],[67.732515,35.446753],[67.547189,35.475388],[67.376429,35.41772],[67.316095,35.450003],[66.962903,35.345655],[66.869243,35.361807],[67.007347,35.494897],[66.999924,35.629989],[66.950981,35.693253],[66.997638,35.79128],[67.088791,35.766231],[67.124746,35.806376],[67.008555,35.926645],[67.050793,35.992948],[67.050936,36.074806],[67.11324,36.081066],[67.140836,36.136818],[67.199907,36.153241],[67.350003,36.190522],[67.421529,36.162343],[67.459249,36.17871],[67.381912,36.200508],[67.376083,36.224987],[67.439287,36.259667],[67.400631,36.302375],[67.421075,36.314882],[67.403458,36.340753],[67.470016,36.37987],[67.509305,36.462503],[67.501242,36.513562],[67.534614,36.541972],[67.43385,36.61909],[67.390264,36.791348],[67.304678,36.955411],[67.312366,37.075656],[67.672896,37.045742],[67.802497,37.077798],[67.894314,37.06938],[67.899073,37.028929],[68.04834,36.903229],[68.08896,36.724973],[68.203609,36.593417],[68.329356,36.54521],[68.508779,36.541409],[68.47359,36.36682],[68.51483,36.33483],[68.51435,36.21663],[68.54264,36.16942],[68.348852,35.998441],[68.315507,35.842573],[68.155991,35.703766],[68.154859,35.703062]]]}},{"type":"Feature","properties":{"adm1_name":"Logar","adm1_name1":"لوگر","adm1_name2":"","adm1_name3":"","adm1_pcode":"AF05","adm0_name":"Afghanistan","adm0_name1":"افغانستان","adm0_name2":"","adm0_name3":"","adm0_pcode":"AF","valid_on":"20250601","valid_to":"00000000","area_sqkm":4393.05666181,"version":"v03","lang":"en","lang1":"prs","lang2":"","lang3":"","adm1_ref_n":"","regionname":"Capital","regioncode":"CR","center_lat":null,"center_lon":null,"region_nam":"مرکزی حوزه"},"geometry":{"type":"Polygon","coordinates":[[[68.784823,33.617354],[68.747938,33.668972],[68.755147,33.702094],[68.78363,33.70395],[68.768282,33.766339],[68.712778,33.792601],[68.786506,33.849799],[68.753009,33.915531],[68.813686,33.933734],[68.884927,34.007759],[68.866995,34.041858],[68.811486,34.050641],[68.813419,34.137768],[68.957012,34.337332],[69.045558,34.334485],[69.129387,34.294572],[69.290602,34.367605],[69.373989,34.190642],[69.417538,34.204223],[69.468667,34.14666],[69.735387,34.257305],[69.812743,34.190274],[69.908271,34.03944],[69.888746,34.01868],[69.848674,34.0775],[69.808472,34.085611],[69.780259,34.034652],[69.714666,34.006264],[69.636553,34.067449],[69.499371,34.043469],[69.494434,33.98916],[69.447449,33.930658],[69.405154,33.925899],[69.32159,33.835411],[69.18203,33.793862],[69.193055,33.769595],[69.092844,33.727001],[69.025296,33.611229],[68.783276,33.614974],[68.784823,33.617354]]]}},{"type":"Feature","properties":{"adm1_name":"Paktika","adm1_name1":"پکتیکا","adm1_name2":"","adm1_name3":"","adm1_pcode":"AF12","adm0_name":"Afghanistan","adm0_name1":"افغانستان","adm0_name2":"","adm0_name3":"","adm0_pcode":"AF","valid_on":"20250601","valid_to":"00000000","area_sqkm":18875.71697444,"version":"v03","lang":"en","lang1":"prs","lang2":"","lang3":"","adm1_ref_n":"","regionname":"South Eastern","regioncode":"SE","center_lat":null,"center_lon":null,"region_nam":"جنوب ختیځه حوزه"},"geometry":{"type":"Polygon","coordinates":[[[68.161767,31.841635],[68.02362,32.04293],[68.073236,32.087508],[68.08775,32.157999],[68.056996,32.273701],[68.092592,32.380874],[68.077252,32.454391],[68.057231,32.502231],[67.89113,32.61303],[67.856724,32.661498],[67.877182,32.707388],[67.936979,32.789479],[68.056315,32.717108],[68.216215,32.756441],[68.258902,32.821757],[68.243285,32.865861],[68.289797,32.850802],[68.351546,32.892344],[68.463548,33.020263],[68.445202,33.084438],[68.635729,33.209167],[68.662396,33.309016],[68.758906,33.396459],[68.912521,33.41556],[68.953377,33.384051],[68.916139,33.368372],[68.91544,33.32167],[68.985791,33.276105],[68.973728,33.175269],[69.017087,33.151682],[69.19875,33.240088],[69.227953,33.288577],[69.282179,33.239814],[69.401766,33.270304],[69.379708,33.183859],[69.40444,33.14152],[69.351633,33.052424],[69.409173,33.069922],[69.408957,33.042208],[69.495547,33.008294],[69.503635,32.887529],[69.547417,32.875388],[69.463745,32.851218],[69.391728,32.780612],[69.441798,32.72751],[69.453095,32.656408],[69.382473,32.561437],[69.278598,32.528758],[69.237916,32.458473],[69.281508,32.346162],[69.273055,32.141137],[69.33369,31.923611],[69.285565,31.91963],[69.191605,31.847591],[69.117968,31.701842],[69.021095,31.628897],[68.960029,31.648428],[68.927116,31.60122],[68.856951,31.593206],[68.790687,31.621988],[68.784196,31.660021],[68.728222,31.694989],[68.70852,31.770885],[68.64279,31.777224],[68.57651,31.833114],[68.433385,31.762087],[68.590604,31.752831],[68.544393,31.712299],[68.42797,31.755453],[68.279149,31.757357],[68.264302,31.802071],[68.165622,31.840636],[68.161767,31.841635]]]}},{"type":"Feature","properties":{"adm1_name":"Sar-e-Pul","adm1_name1":"سرپل","adm1_name2":"","adm1_name3":"","adm1_pcode":"AF22","adm0_name":"Afghanistan","adm0_name1":"افغانستان","adm0_name2":"","adm0_name3":"","adm0_pcode":"AF","valid_on":"20250601","valid_to":"00000000","area_sqkm":14973.02040937,"version":"v03","lang":"en","lang1":"prs","lang2":"","lang3":"","adm1_ref_n":"","regionname":"Northern","regioncode":"NR","center_lat":null,"center_lon":null,"region_nam":"سهیلی حوزه"},"geometry":{"type":"Polygon","coordinates":[[[66.142172,34.881247],[66.117093,35.105547],[66.046375,35.101787],[66.016275,35.206983],[65.79536,35.238052],[65.694825,35.20603],[65.629926,35.281727],[65.581028,35.243447],[65.47413,35.23381],[65.380356,35.354467],[65.411693,35.371456],[65.392177,35.416968],[65.483969,35.541528],[65.481221,35.65817],[65.538828,35.707758],[65.635438,35.683597],[65.686541,35.799862],[65.769168,35.793616],[65.797209,35.879595],[65.719145,36.019527],[65.674649,35.977482],[65.513212,35.975895],[65.576337,36.060765],[65.532436,36.113589],[65.491747,36.11701],[65.517725,36.186317],[65.506968,36.288767],[65.554507,36.406003],[65.759141,36.482473],[65.81704,36.461795],[65.990485,36.51387],[66.275896,36.474235],[66.349514,36.499825],[66.297122,36.434409],[66.339655,36.311867],[66.397238,36.315793],[66.508956,36.157413],[66.706077,36.082814],[66.616722,36.06119],[66.588359,36.011269],[66.617506,35.820966],[66.577684,35.788891],[66.596443,35.748411],[66.554612,35.687735],[66.594587,35.675314],[66.675528,35.71423],[66.738307,35.671364],[66.961183,35.708057],[66.960022,35.664402],[67.004148,35.612738],[67.007347,35.494897],[66.906233,35.404327],[66.794161,35.368159],[66.674444,35.201121],[66.551247,35.16879],[66.286136,35.185132],[66.277769,35.132419],[66.437212,35.001138],[66.422656,34.911411],[66.326878,34.898914],[66.243583,34.92415],[66.246179,34.881961],[66.199172,34.857012],[66.143315,34.880997],[66.142172,34.881247]]]}},{"type":"Feature","properties":{"adm1_name":"Paktya","adm1_name1":"پکتیا","adm1_name2":"","adm1_name3":"","adm1_pcode":"AF13","adm0_name":"Afghanistan","adm0_name1":"افغانستان","adm0_name2":"","adm0_name3":"","adm0_pcode":"AF","valid_on":"20250601","valid_to":"00000000","area_sqkm":5466.03170049,"version":"v03","lang":"en","lang1":"prs","lang2":"","lang3":"","adm1_ref_n":"","regionname":"South Eastern","regioncode":"SE","center_lat":null,"center_lon":null,"region_nam":"جنوب ختیځه حوزه"},"geometry":{"type":"Polygon","coordinates":[[[69.217205,33.278869],[69.19875,33.240088],[69.019847,33.152309],[68.975632,33.172413],[68.985791,33.276105],[68.907093,33.346511],[68.951267,33.400484],[68.819565,33.413307],[68.769357,33.605457],[69.025296,33.611229],[69.092844,33.727001],[69.193055,33.769595],[69.18203,33.793862],[69.32159,33.835411],[69.405154,33.925899],[69.447449,33.930658],[69.494434,33.98916],[69.499371,34.043469],[69.636553,34.067449],[69.714666,34.006264],[69.780259,34.034652],[69.807061,34.085082],[69.848674,34.0775],[69.902833,33.98808],[69.859479,33.965475],[69.858864,33.924304],[69.909239,33.897219],[69.971471,33.757783],[70.049116,33.731437],[70.046266,33.699619],[69.923785,33.677063],[69.979235,33.588356],[69.884005,33.59304],[69.82512,33.50019],[69.704435,33.653292],[69.622989,33.69857],[69.572386,33.691891],[69.484116,33.542878],[69.497524,33.505396],[69.566458,33.522274],[69.588585,33.503425],[69.539298,33.383945],[69.387989,33.25717],[69.350155,33.273017],[69.282179,33.239814],[69.219335,33.280881],[69.217205,33.278869]]]}},{"type":"Feature","properties":{"adm1_name":"Nuristan","adm1_name1":"نورستان","adm1_name2":"","adm1_name3":"","adm1_pcode":"AF16","adm0_name":"Afghanistan","adm0_name1":"افغانستان","adm0_name2":"","adm0_name3":"","adm0_pcode":"AF","valid_on":"20250601","valid_to":"00000000","area_sqkm":9579.49480819,"version":"v03","lang":"en","lang1":"prs","lang2":"","lang3":"","adm1_ref_n":"","regionname":"Eastern","regioncode":"ER","center_lat":null,"center_lon":null,"region_nam":"ختیځه حوزه"},"geometry":{"type":"Polygon","coordinates":[[[71.197562,35.316972],[71.110414,35.072134],[71.054639,35.0965],[71.006003,35.028923],[70.926791,35.040476],[70.844997,34.985986],[70.80526,35.002047],[70.827805,35.047495],[70.79827,35.090542],[70.630215,34.952803],[70.558157,34.922176],[70.440754,34.920796],[70.264495,34.943091],[70.178647,35.082107],[70.028116,35.099553],[70.021751,35.164504],[69.967815,35.220871],[69.99227,35.278958],[69.91467,35.337688],[69.918313,35.362422],[70.048002,35.417828],[70.077842,35.478246],[70.143726,35.473261],[70.17998,35.526545],[70.173431,35.569729],[70.226562,35.5749],[70.233702,35.666586],[70.300109,35.653144],[70.377592,35.716902],[70.461288,35.67325],[70.49807,35.682869],[70.504028,35.626536],[70.560055,35.586493],[70.559882,35.531741],[70.533822,35.523795],[70.547266,35.448128],[70.646102,35.464546],[70.636406,35.515496],[70.686345,35.546578],[70.744196,35.494111],[70.869742,35.477663],[70.895452,35.524616],[70.869237,35.577477],[70.879444,35.636835],[70.951268,35.619497],[71.016181,35.689381],[71.013845,35.741795],[70.983915,35.759361],[71.027592,35.801311],[71.01687,35.851863],[71.064876,35.86746],[71.123848,36.00652],[71.199289,36.039194],[71.318927,35.959513],[71.387812,35.952697],[71.380257,35.904899],[71.432039,35.887735],[71.503602,35.800183],[71.493644,35.748786],[71.553249,35.72191],[71.498971,35.629291],[71.620287,35.571256],[71.593554,35.500443],[71.65714,35.44171],[71.484143,35.236333],[71.429986,35.273072],[71.464261,35.295796],[71.453693,35.343789],[71.36622,35.366794],[71.197533,35.317099],[71.197562,35.316972]]]}},{"type":"Feature","properties":{"adm1_name":"Balkh","adm1_name1":"بلخ","adm1_name2":"","adm1_name3":"","adm1_pcode":"AF21","adm0_name":"Afghanistan","adm0_name1":"افغانستان","adm0_name2":"","adm0_name3":"","adm0_pcode":"AF","valid_on":"20250601","valid_to":"00000000","area_sqkm":14285.38870646,"version":"v03","lang":"en","lang1":"prs","lang2":"","lang3":"","adm1_ref_n":"","regionname":"Northern","regioncode":"NR","center_lat":null,"center_lon":null,"region_nam":"سهیلی حوزه"},"geometry":{"type":"Polygon","coordinates":[[[66.848,35.692637],[66.736165,35.671269],[66.673062,35.714385],[66.594587,35.675314],[66.554612,35.687735],[66.596443,35.748411],[66.577684,35.788891],[66.617506,35.820966],[66.588359,36.011269],[66.616722,36.06119],[66.705304,36.085494],[66.508956,36.157413],[66.447537,36.268455],[66.416996,36.262892],[66.396316,36.316536],[66.339655,36.311867],[66.297271,36.387831],[66.297122,36.434409],[66.353043,36.495493],[66.432847,36.494734],[66.450989,36.540668],[66.375003,36.612442],[66.412237,36.667188],[66.35702,36.774628],[66.433818,36.78229],[66.466797,36.748721],[66.53415,36.77039],[66.52906,36.80608],[66.56934,36.78451],[66.58095,36.81387],[66.512335,36.925852],[66.424735,36.98302],[66.402463,37.091333],[66.454988,37.178059],[66.439816,37.202747],[66.219825,37.186421],[66.247308,37.280202],[66.298868,37.328601],[66.502353,37.331611],[66.586765,37.370158],[66.655864,37.323009],[66.693555,37.357701],[66.850457,37.353775],[66.949145,37.398604],[67.058219,37.373584],[67.112328,37.328077],[67.125998,37.273076],[67.209339,37.249019],[67.264126,37.182918],[67.450486,37.23545],[67.502636,37.281544],[67.573533,37.22345],[67.68165,37.232552],[67.791997,37.167414],[67.802497,37.077798],[67.712871,37.047645],[67.311423,37.074186],[67.304678,36.955411],[67.390264,36.791348],[67.43385,36.61909],[67.534614,36.541972],[67.501242,36.513562],[67.509305,36.462503],[67.470016,36.37987],[67.403458,36.340753],[67.421075,36.314882],[67.400631,36.302375],[67.439287,36.259667],[67.376083,36.224987],[67.381912,36.200508],[67.459249,36.17871],[67.421529,36.162343],[67.350003,36.190522],[67.199907,36.153241],[67.140836,36.136818],[67.11324,36.081066],[67.051178,36.075013],[67.050793,35.992948],[67.008555,35.926645],[67.124746,35.806376],[67.088791,35.766231],[67.001717,35.794654],[66.968131,35.706013],[66.849808,35.693446],[66.848,35.692637]]]}},{"type":"Feature","properties":{"adm1_name":"Panjsher","adm1_name1":"پنجشیر","adm1_name2":"","adm1_name3":"","adm1_pcode":"AF08","adm0_name":"Afghanistan","adm0_name1":"افغانستان","adm0_name2":"","adm0_name3":"","adm0_pcode":"AF","valid_on":"20250601","valid_to":"00000000","area_sqkm":3742.11969612,"version":"v03","lang":"en","lang1":"prs","lang2":"","lang3":"","adm1_ref_n":"","regionname":"Capital","regioncode":"CR","center_lat":null,"center_lon":null,"region_nam":"مرکزی حوزه"},"geometry":{"type":"Polygon","coordinates":[[[69.914734,35.344812],[69.978406,35.30444],[69.990087,35.252899],[69.922497,35.158492],[69.820415,35.138571],[69.806154,35.075363],[69.70499,35.165542],[69.247879,35.163035],[69.265347,35.389124],[69.291937,35.41415],[69.433509,35.418904],[69.498744,35.471975],[69.580973,35.458805],[69.616431,35.496289],[69.675275,35.504478],[69.68885,35.539173],[69.751257,35.5423],[69.813815,35.715285],[69.881478,35.718485],[69.912711,35.777037],[69.971435,35.810766],[69.987551,35.787432],[70.045381,35.823298],[70.120184,35.818986],[70.181917,35.850493],[70.194796,35.890052],[70.294148,35.849414],[70.268308,35.828998],[70.264328,35.67102],[70.219619,35.636648],[70.226562,35.5749],[70.173431,35.569729],[70.17998,35.526545],[70.142877,35.472411],[70.077842,35.478246],[70.048002,35.417828],[69.914515,35.344849],[69.914734,35.344812]]]}},{"type":"Feature","properties":{"adm1_name":"Jawzjan","adm1_name1":"جوزجان","adm1_name2":"","adm1_name3":"","adm1_pcode":"AF28","adm0_name":"Afghanistan","adm0_name1":"افغانستان","adm0_name2":"","adm0_name3":"","adm0_pcode":"AF","valid_on":"20250601","valid_to":"00000000","area_sqkm":10597.13785018,"version":"v03","lang":"en","lang1":"prs","lang2":"","lang3":"","adm1_ref_n":"","regionname":"Northern","regioncode":"NR","center_lat":null,"center_lon":null,"region_nam":"سهیلی حوزه"},"geometry":{"type":"Polygon","coordinates":[[[65.205161,36.128601],[65.241609,36.353668],[65.348718,36.378239],[65.407641,36.353362],[65.487603,36.411181],[65.432309,36.474763],[65.451262,36.583159],[65.389715,36.627988],[65.446673,36.766344],[65.340009,36.907526],[65.339036,37.008365],[65.48327,37.237359],[65.531468,37.238103],[65.643198,37.342774],[65.646796,37.442365],[65.706108,37.538556],[65.767626,37.550071],[65.840703,37.487489],[66.070261,37.449299],[66.169306,37.368754],[66.291908,37.334668],[66.219825,37.186421],[66.439816,37.202747],[66.454988,37.178059],[66.402463,37.091333],[66.424735,36.98302],[66.532102,36.903052],[66.5809,36.80241],[66.56715,36.78437],[66.52906,36.80608],[66.53415,36.77039],[66.466649,36.748698],[66.433818,36.78229],[66.35702,36.774628],[66.412237,36.667188],[66.375003,36.612442],[66.448732,36.550258],[66.432124,36.49443],[66.275896,36.474235],[65.990485,36.51387],[65.81704,36.461795],[65.759141,36.482473],[65.554507,36.406003],[65.506968,36.288767],[65.517725,36.186317],[65.491747,36.11701],[65.532436,36.113589],[65.576337,36.060765],[65.52707,36.023283],[65.498785,35.927961],[65.372657,35.914808],[65.257893,35.983801],[65.18225,35.956989],[65.190492,35.994383],[65.153469,36.020854],[65.205047,36.127216],[65.205161,36.128601]]]}},{"type":"Feature","properties":{"adm1_name":"Kandahar","adm1_name1":"کندهار","adm1_name2":"","adm1_name3":"","adm1_pcode":"AF27","adm0_name":"Afghanistan","adm0_name1":"افغانستان","adm0_name2":"","adm0_name3":"","adm0_pcode":"AF","valid_on":"20250601","valid_to":"00000000","area_sqkm":54381.16710574,"version":"v03","lang":"en","lang1":"prs","lang2":"","lang3":"","adm1_ref_n":"","regionname":"Southern","regioncode":"SR","center_lat":null,"center_lon":null,"region_nam":"جنوبی حوزه"},"geometry":{"type":"Polygon","coordinates":[[[65.761412,29.718222],[65.059138,29.53467],[64.564608,29.590899],[64.506179,29.568448],[64.645653,30.194204],[64.682178,30.894836],[64.770662,31.295093],[64.691105,31.651062],[64.799111,31.804492],[64.798034,31.898581],[64.895782,31.915153],[64.918702,31.976533],[64.987773,31.982106],[65.12229,31.91466],[65.178998,31.914643],[65.196362,31.968033],[65.014815,31.999142],[64.976255,32.049462],[65.004993,32.069716],[65.000634,32.115231],[65.036531,32.157852],[65.007335,32.183883],[65.054186,32.256663],[65.138542,32.209064],[65.22006,32.257674],[65.233465,32.375804],[65.292835,32.442807],[65.384182,32.423367],[65.463277,32.36205],[65.466983,32.432518],[65.562623,32.435217],[65.661161,32.482815],[65.716113,32.467648],[65.81428,32.495222],[66.015296,32.445604],[66.067359,32.512886],[66.109309,32.51379],[66.200327,32.463235],[66.274456,32.460176],[66.334567,32.553116],[66.387841,32.521971],[66.476159,32.553967],[66.525148,32.490905],[66.49426,32.42779],[66.52129,32.398713],[66.446756,32.353856],[66.418971,32.294364],[66.304408,32.191066],[66.34504,32.129019],[66.347709,32.093642],[66.298611,32.05815],[66.342612,32.015319],[66.345758,31.944316],[66.30568,31.897678],[66.189627,31.848338],[66.193949,31.760062],[66.236416,31.760203],[66.263892,31.709822],[66.392453,31.742073],[66.39827,31.767093],[66.487935,31.751477],[66.562679,31.776075],[66.646931,31.865974],[66.702944,31.883868],[66.7369,31.84437],[66.678522,31.824326],[66.744889,31.777737],[66.797505,31.802907],[66.88901,31.771832],[66.966872,31.781845],[67.026606,31.834916],[67.103814,31.736072],[67.173339,31.758167],[67.234176,31.686064],[67.333395,31.719056],[67.308902,31.701511],[67.40959,31.625055],[67.38551,31.596406],[67.422915,31.541964],[67.466638,31.498789],[67.587137,31.505583],[67.59978,31.425844],[67.639326,31.391687],[67.749108,31.415928],[67.796667,31.382408],[67.767786,31.320512],[67.388556,31.207812],[67.270416,31.198318],[67.154341,31.249002],[67.06987,31.214084],[67.023977,31.237611],[67.058181,31.287074],[67.037748,31.311517],[66.899659,31.293507],[66.833042,31.264215],[66.796571,31.209743],[66.730795,31.208702],[66.691819,31.076475],[66.577776,30.976852],[66.392035,30.940828],[66.277048,30.568845],[66.308465,30.500149],[66.355967,30.483216],[66.33862,30.445597],[66.366745,30.42066],[66.321603,30.23403],[66.228625,30.069044],[66.373445,29.970921],[66.25129,29.849211],[65.781067,29.723314],[65.761412,29.718222]]]}},{"type":"Feature","properties":{"adm1_name":"Daykundi","adm1_name1":"دایکندی","adm1_name2":"","adm1_name3":"","adm1_pcode":"AF24","adm0_name":"Afghanistan","adm0_name1":"افغانستان","adm0_name2":"","adm0_name3":"","adm0_pcode":"AF","valid_on":"20250601","valid_to":"00000000","area_sqkm":13608.86562779,"version":"v03","lang":"en","lang1":"prs","lang2":"","lang3":"","adm1_ref_n":"","regionname":"Central Highland","regioncode":"CH","center_lat":null,"center_lon":null,"region_nam":"لوړه مرکزی حوزه"},"geometry":{"type":"Polygon","coordinates":[[[65.617081,33.309277],[65.57613,33.374855],[65.638466,33.465821],[65.612211,33.507415],[65.632741,33.574031],[65.683971,33.598099],[65.636429,33.668733],[65.583433,33.683766],[65.608108,33.705803],[65.583147,33.749692],[65.506886,33.73858],[65.476819,33.798014],[65.405663,33.842101],[65.440272,33.918339],[65.481311,33.928499],[65.479646,33.960354],[65.528335,33.965619],[65.521613,34.03379],[65.650064,34.12907],[65.629363,34.152627],[65.726278,34.187141],[65.652289,34.240715],[65.667362,34.352174],[65.853205,34.353204],[65.973249,34.305049],[66.020986,34.361651],[66.149596,34.343954],[66.199833,34.310344],[66.293851,34.36061],[66.317166,34.302939],[66.393257,34.292871],[66.475282,34.332005],[66.58784,34.32057],[66.59421,34.28449],[66.5241,34.25257],[66.48502,34.148977],[66.511632,34.107279],[66.496499,34.063972],[66.579373,33.996026],[66.659942,33.970994],[66.811336,34.017096],[66.928762,33.977597],[66.966,33.911627],[66.95365,33.86791],[67.010946,33.834535],[67.144998,33.941604],[67.228477,33.941325],[67.25063,33.97543],[67.421731,33.861553],[67.384909,33.782555],[67.315845,33.72176],[67.233932,33.730267],[67.164131,33.663817],[66.857894,33.601285],[66.779945,33.469582],[66.519929,33.539586],[66.526032,33.59937],[66.309454,33.471414],[66.325694,33.495756],[66.280329,33.57178],[66.221214,33.591764],[66.226049,33.527431],[66.161611,33.525329],[66.167393,33.49064],[66.134596,33.460365],[66.178851,33.417057],[66.174751,33.375535],[66.250437,33.333908],[66.270199,33.291965],[66.13344,33.183483],[66.084454,33.190631],[66.059781,33.060464],[65.998017,33.035135],[65.965097,33.041285],[65.979165,33.07486],[65.906931,33.147652],[65.841258,33.10406],[65.800183,33.149248],[65.66881,33.070261],[65.67188,33.0996],[65.576107,33.147641],[65.465152,33.154271],[65.419357,33.061824],[65.352075,33.120727],[65.371968,33.203552],[65.346764,33.261687],[65.427258,33.294595],[65.508695,33.252835],[65.591287,33.268493],[65.617631,33.309484],[65.617081,33.309277]]]}},{"type":"Feature","properties":{"adm1_name":"Uruzgan","adm1_name1":"ارزگان","adm1_name2":"","adm1_name3":"","adm1_pcode":"AF25","adm0_name":"Afghanistan","adm0_name1":"افغانستان","adm0_name2":"","adm0_name3":"","adm0_pcode":"AF","valid_on":"20250601","valid_to":"00000000","area_sqkm":13124.69997946,"version":"v03","lang":"en","lang1":"prs","lang2":"","lang3":"","adm1_ref_n":"","regionname":"Southern","regioncode":"SR","center_lat":null,"center_lon":null,"region_nam":"جنوبی حوزه"},"geometry":{"type":"Polygon","coordinates":[[[65.534783,32.448765],[65.46437,32.430363],[65.453834,32.361277],[65.384182,32.423367],[65.267108,32.448686],[65.28867,32.647596],[65.233295,32.674415],[65.171962,32.659472],[65.237295,32.775049],[65.201517,32.793637],[65.211097,32.872159],[65.180945,32.894736],[65.293046,33.064134],[65.366438,33.108556],[65.429979,33.06407],[65.465152,33.154271],[65.576107,33.147641],[65.67188,33.0996],[65.66881,33.070261],[65.800183,33.149248],[65.841258,33.10406],[65.906931,33.147652],[65.979165,33.07486],[65.965668,33.040786],[66.059781,33.060464],[66.084454,33.190631],[66.13344,33.183483],[66.270199,33.291965],[66.250437,33.333908],[66.174751,33.375535],[66.178851,33.417057],[66.134596,33.460365],[66.167393,33.49064],[66.161611,33.525329],[66.226049,33.527431],[66.221214,33.591764],[66.280329,33.57178],[66.325694,33.495756],[66.310525,33.471236],[66.526032,33.59937],[66.519929,33.539586],[66.766025,33.46982],[66.830568,33.555362],[66.915574,33.516755],[66.949957,33.448881],[66.867806,33.4142],[66.852875,33.34698],[66.881212,33.28408],[67.007406,33.299326],[66.991701,33.238204],[67.042989,33.162877],[67.009524,33.121765],[66.932755,33.102104],[66.888177,33.036743],[66.898184,32.992907],[66.858791,32.965026],[66.903541,32.931952],[66.991068,32.93772],[67.016479,32.881769],[66.951858,32.892429],[66.970095,32.847382],[66.943424,32.826829],[66.912595,32.843242],[66.878614,32.806929],[66.834528,32.819131],[66.743175,32.786485],[66.683114,32.735905],[66.676036,32.688337],[66.595744,32.652226],[66.412884,32.646868],[66.4017,32.612525],[66.319716,32.587036],[66.328011,32.510145],[66.274456,32.460176],[66.068668,32.513219],[66.015296,32.445604],[65.961202,32.476976],[65.799974,32.495979],[65.716113,32.467648],[65.659427,32.482405],[65.562623,32.435217],[65.536083,32.448937],[65.534783,32.448765]]]}},{"type":"Feature","properties":{"adm1_name":"Ghor","adm1_name1":"غور","adm1_name2":"","adm1_name3":"","adm1_pcode":"AF23","adm0_name":"Afghanistan","adm0_name1":"افغانستان","adm0_name2":"","adm0_name3":"","adm0_pcode":"AF","valid_on":"20250601","valid_to":"00000000","area_sqkm":38863.98572147,"version":"v03","lang":"en","lang1":"prs","lang2":"","lang3":"","adm1_ref_n":"","regionname":"Western","regioncode":"WR","center_lat":null,"center_lon":null,"region_nam":"لویدیځه حوزه"},"geometry":{"type":"Polygon","coordinates":[[[64.621699,33.228193],[64.47254,33.136139],[64.428925,33.173568],[64.389709,33.127598],[64.277609,33.151628],[64.280233,33.218019],[64.09904,33.273523],[64.118071,33.350968],[64.080876,33.386001],[64.031382,33.361628],[63.969921,33.436332],[63.994798,33.476699],[64.022352,33.472226],[64.035106,33.536804],[63.995655,33.561485],[64.016458,33.614449],[63.91368,33.578638],[63.895172,33.491877],[63.86936,33.491611],[63.86818,33.450152],[63.820769,33.408445],[63.686396,33.395603],[63.658794,33.417792],[63.670394,33.445453],[63.593525,33.427797],[63.592484,33.402218],[63.635875,33.385934],[63.618124,33.366327],[63.578896,33.387526],[63.484775,33.366604],[63.441383,33.391398],[63.342532,33.352775],[63.253245,33.368547],[63.281703,33.442352],[63.32868,33.442489],[63.3022,33.475182],[63.343579,33.543539],[63.327128,33.590689],[63.378828,33.590252],[63.387057,33.655696],[63.509743,33.672035],[63.536274,33.731015],[63.521882,33.771597],[63.595359,33.79908],[63.586125,33.840368],[63.538495,33.861114],[63.594469,33.895576],[63.532238,33.899789],[63.460033,33.988497],[63.362348,34.038703],[63.414482,34.115892],[63.480877,34.134661],[63.460586,34.163577],[63.363347,34.165792],[63.338973,34.208771],[63.377682,34.285904],[63.706682,34.286055],[63.796156,34.268432],[63.845601,34.227038],[63.994073,34.225199],[64.041974,34.295312],[64.086877,34.301643],[64.069201,34.317516],[64.113792,34.371505],[64.132076,34.470503],[64.049323,34.491046],[64.01632,34.570145],[64.119609,34.615559],[64.25822,34.581765],[64.292468,34.622862],[64.310128,34.603482],[64.386451,34.627415],[64.431358,34.603756],[64.51904,34.611112],[64.520372,34.697248],[64.61027,34.77206],[64.67894,34.79013],[64.69314,34.85971],[64.744124,34.919894],[64.73459,34.993213],[64.781098,35.00018],[64.754277,35.028097],[64.806041,35.070512],[64.682936,35.195537],[64.778483,35.243007],[64.820647,35.218166],[64.874435,35.262293],[64.928449,35.250633],[65.013455,35.280977],[65.141851,35.259324],[65.191629,35.220539],[65.259229,35.236731],[65.267314,35.163956],[65.286445,35.196126],[65.358596,35.178054],[65.459242,35.259151],[65.47413,35.23381],[65.581028,35.243447],[65.629152,35.281757],[65.694825,35.20603],[65.79536,35.238052],[66.016275,35.206983],[66.046375,35.101787],[66.117093,35.105547],[66.140745,34.881961],[66.195282,34.855941],[66.246179,34.881961],[66.243583,34.92415],[66.326878,34.898914],[66.383378,34.921079],[66.522149,34.847911],[66.583896,34.79141],[66.564693,34.739621],[66.640432,34.678838],[66.699894,34.676518],[66.726368,34.636553],[66.690676,34.563622],[66.590786,34.5231],[66.506296,34.337131],[66.396512,34.292754],[66.317166,34.302939],[66.293851,34.36061],[66.199833,34.310344],[66.149596,34.343954],[66.019708,34.361472],[65.973249,34.305049],[65.853205,34.353204],[65.652081,34.346036],[65.652289,34.240715],[65.726278,34.187141],[65.629363,34.152627],[65.650064,34.12907],[65.521613,34.03379],[65.528335,33.965619],[65.479646,33.960354],[65.481311,33.928499],[65.440272,33.918339],[65.405663,33.842101],[65.476819,33.798014],[65.506886,33.73858],[65.582231,33.75018],[65.605776,33.729705],[65.578079,33.679211],[65.505018,33.669786],[65.525589,33.578941],[65.38563,33.47813],[65.37146,33.417851],[65.228814,33.360019],[65.161666,33.366276],[65.119868,33.31596],[65.007056,33.289854],[64.950544,33.23753],[64.890167,33.255909],[64.838628,33.198992],[64.81124,33.2018],[64.799556,33.253192],[64.623285,33.230123],[64.621699,33.228193]]]}},{"type":"Feature","properties":{"adm1_name":"Farah","adm1_name1":"فراه","adm1_name2":"","adm1_name3":"","adm1_pcode":"AF33","adm0_name":"Afghanistan","adm0_name1":"افغانستان","adm0_name2":"","adm0_name3":"","adm0_pcode":"AF","valid_on":"20250601","valid_to":"00000000","area_sqkm":40904.73460041,"version":"v03","lang":"en","lang1":"prs","lang2":"","lang3":"","adm1_ref_n":"","regionname":"Western","regioncode":"WR","center_lat":null,"center_lon":null,"region_nam":"لویدیځه حوزه"},"geometry":{"type":"Polygon","coordinates":[[[61.570427,31.39382],[60.857659,31.485638],[60.81619,31.70754],[60.817571,31.887864],[60.823094,32.032654],[60.880149,32.20189],[60.814235,32.479496],[60.689141,32.787938],[60.814965,32.828102],[60.89306,32.687893],[61.285718,32.711031],[61.327091,32.804296],[61.428855,32.814515],[61.476768,32.849979],[61.628112,32.83896],[61.711715,32.889835],[61.788662,32.885664],[61.905192,32.991424],[61.959563,32.970867],[61.999136,32.876469],[62.045135,32.872841],[62.231769,32.987958],[62.3513,32.985715],[62.492341,33.055652],[62.554838,33.032279],[62.709211,33.075572],[62.715983,33.110742],[62.774836,33.105024],[62.878457,33.150893],[62.911212,33.156091],[62.914666,33.12063],[63.091472,33.167307],[63.090126,33.205564],[63.141227,33.26239],[63.105769,33.281129],[63.151498,33.32908],[63.130104,33.356376],[63.198745,33.403419],[63.218432,33.476361],[63.286807,33.492792],[63.300135,33.574061],[63.233844,33.616351],[63.387057,33.655696],[63.378828,33.590252],[63.327003,33.590309],[63.343579,33.543539],[63.3022,33.475182],[63.32868,33.442489],[63.281954,33.442574],[63.250761,33.37479],[63.3262,33.35091],[63.441136,33.391398],[63.484775,33.366604],[63.578896,33.387526],[63.62017,33.366708],[63.635875,33.385934],[63.592484,33.402218],[63.593525,33.427797],[63.669264,33.445334],[63.658794,33.417792],[63.686396,33.395603],[63.820769,33.408445],[63.86818,33.450152],[63.86936,33.491611],[63.895172,33.491877],[63.91368,33.578638],[64.016458,33.614449],[63.995655,33.561485],[64.035106,33.536804],[64.022352,33.472226],[63.994798,33.476699],[63.969921,33.436332],[64.031382,33.361628],[64.080876,33.386001],[64.118071,33.350968],[64.09904,33.273523],[64.280233,33.218019],[64.266606,33.165638],[64.316508,33.128471],[64.25014,33.029006],[64.334773,33.004793],[64.400675,32.904627],[64.367312,32.879212],[64.385477,32.841724],[64.339406,32.764094],[64.27319,32.7319],[64.245971,32.685228],[64.134765,32.657321],[64.098045,32.619621],[64.100917,32.57001],[63.989839,32.541181],[64.014383,32.449922],[63.953437,32.397652],[63.922066,32.4123],[63.826183,32.325555],[63.709366,32.325964],[63.660577,32.256193],[63.577177,32.211174],[63.514297,32.197273],[63.218485,32.243425],[63.178421,32.106969],[63.140112,32.070325],[62.959945,31.9857],[62.768131,31.961714],[62.737987,31.926997],[62.632895,32.047546],[62.537111,32.109381],[62.46422,32.056365],[62.349772,32.04108],[62.06925,32.015925],[61.982164,32.042094],[61.993971,31.949323],[61.957893,31.926609],[62.01041,31.92052],[61.95106,31.87635],[61.9813,31.80759],[61.87475,31.71832],[61.7702,31.673703],[61.733833,31.605152],[61.654477,31.600058],[61.684911,31.554562],[61.683059,31.481502],[61.629735,31.453186],[61.646082,31.427797],[61.619099,31.388512],[61.591901,31.390905],[61.570427,31.39382]]]}},{"type":"Feature","properties":{"adm1_name":"Parwan","adm1_name1":"پروان","adm1_name2":"","adm1_name3":"","adm1_pcode":"AF03","adm0_name":"Afghanistan","adm0_name1":"افغانستان","adm0_name2":"","adm0_name3":"","adm0_pcode":"AF","valid_on":"20250601","valid_to":"00000000","area_sqkm":5581.14173847,"version":"v03","lang":"en","lang1":"prs","lang2":"","lang3":"","adm1_ref_n":"","regionname":"Capital","regioncode":"CR","center_lat":null,"center_lon":null,"region_nam":"مرکزی حوزه"},"geometry":{"type":"Polygon","coordinates":[[[69.573531,34.883916],[69.568287,34.841652],[69.591525,34.830204],[69.565041,34.755708],[69.623135,34.693001],[69.60639,34.651823],[69.533959,34.663132],[69.540609,34.603418],[69.478239,34.584279],[69.430439,34.630446],[69.403919,34.737089],[69.359297,34.744529],[69.307203,34.833351],[69.227205,34.891725],[69.16438,34.879274],[69.054804,34.932013],[68.938993,34.859384],[68.911364,34.754169],[68.864145,34.703731],[68.858566,34.621513],[68.557747,34.697821],[68.411294,34.62506],[68.372362,34.633685],[68.36799,34.701394],[68.29471,34.752679],[68.299343,34.794678],[68.23545,34.823204],[68.28111,34.879614],[68.191358,35.025447],[68.246275,35.027775],[68.315345,35.077757],[68.372918,35.053265],[68.436388,35.077717],[68.612245,35.071469],[68.597583,35.117984],[68.678497,35.133354],[68.854137,35.29572],[68.946351,35.269556],[68.979319,35.304534],[69.025633,35.29608],[69.062234,35.357143],[69.181019,35.419784],[69.250154,35.421466],[69.275274,35.368901],[69.250272,35.352356],[69.24062,35.171274],[69.290001,35.156923],[69.277361,35.033538],[69.309167,34.999804],[69.383306,34.99096],[69.417213,34.944082],[69.57884,34.911947],[69.573317,34.884051],[69.573531,34.883916]]]}},{"type":"Feature","properties":{"adm1_name":"Faryab","adm1_name1":"فاریاب","adm1_name2":"","adm1_name3":"","adm1_pcode":"AF29","adm0_name":"Afghanistan","adm0_name1":"افغانستان","adm0_name2":"","adm0_name3":"","adm0_pcode":"AF","valid_on":"20250601","valid_to":"00000000","area_sqkm":20811.35184884,"version":"v03","lang":"en","lang1":"prs","lang2":"","lang3":"","adm1_ref_n":"","regionname":"Northern","regioncode":"NR","center_lat":null,"center_lon":null,"region_nam":"سهیلی حوزه"},"geometry":{"type":"Polygon","coordinates":[[[65.392063,35.415822],[65.411693,35.371456],[65.381605,35.350291],[65.459242,35.259151],[65.358596,35.178054],[65.286445,35.196126],[65.267314,35.163956],[65.259229,35.236731],[65.191629,35.220539],[65.141851,35.259324],[65.013455,35.280977],[64.928449,35.250633],[64.873245,35.261995],[64.819124,35.217785],[64.775913,35.242341],[64.600192,35.156789],[64.519158,35.172705],[64.448373,35.147621],[64.438567,35.203585],[64.397378,35.201158],[64.425104,35.309555],[64.389412,35.35307],[64.427223,35.41462],[64.345948,35.387113],[64.263499,35.420735],[64.27774,35.455142],[64.230092,35.484017],[63.980232,35.491821],[63.977079,35.673344],[63.824689,35.744123],[63.823287,35.775513],[63.871507,35.78829],[63.863584,35.830336],[63.932274,35.838645],[63.912401,35.948423],[63.973732,36.03252],[64.070485,35.999535],[64.058547,36.103431],[64.169716,36.163053],[64.284276,36.151615],[64.316346,36.208286],[64.445666,36.242643],[64.580069,36.35168],[64.636627,36.442157],[64.618634,36.636329],[64.798287,36.922912],[64.755585,37.112875],[64.990177,37.218419],[65.133275,37.246294],[65.48327,37.237359],[65.339036,37.008365],[65.336079,36.927063],[65.446673,36.766344],[65.389715,36.627988],[65.451262,36.583159],[65.432309,36.474763],[65.487603,36.411181],[65.407641,36.353362],[65.348718,36.378239],[65.241609,36.353668],[65.247527,36.302792],[65.214439,36.280648],[65.225665,36.154769],[65.154111,36.007819],[65.189838,35.995752],[65.190035,35.953058],[65.257893,35.983801],[65.3189,35.933653],[65.415716,35.91397],[65.504585,35.93156],[65.516541,35.978132],[65.674649,35.977482],[65.718336,36.019789],[65.797209,35.879595],[65.769168,35.793616],[65.686541,35.799862],[65.635438,35.683597],[65.538828,35.707758],[65.481221,35.65817],[65.483969,35.541528],[65.392177,35.416968],[65.392063,35.415822]]]}},{"type":"Feature","properties":{"adm1_name":"Kunduz","adm1_name1":"کندز","adm1_name2":"","adm1_name3":"","adm1_pcode":"AF19","adm0_name":"Afghanistan","adm0_name1":"افغانستان","adm0_name2":"","adm0_name3":"","adm0_pcode":"AF","valid_on":"20250601","valid_to":"00000000","area_sqkm":7863.32684113,"version":"v03","lang":"en","lang1":"prs","lang2":"","lang3":"","adm1_ref_n":"","regionname":"North Eastern","regioncode":"NE","center_lat":null,"center_lon":null,"region_nam":"سهیل ختیځه حوزه"},"geometry":{"type":"Polygon","coordinates":[[[68.99067,36.470548],[68.846776,36.404594],[68.693054,36.455592],[68.58899,36.531939],[68.421508,36.558625],[68.329356,36.54521],[68.203609,36.593417],[68.08896,36.724973],[68.031401,36.929141],[68.193293,37.023397],[68.271429,37.011678],[68.295818,37.105429],[68.399676,37.101334],[68.420898,37.143584],[68.645377,37.207864],[68.656765,37.247923],[68.689648,37.243434],[68.681594,37.280271],[68.781377,37.288228],[68.819606,37.243588],[68.837367,37.256488],[68.809299,37.296262],[68.834973,37.318058],[68.913072,37.267946],[68.905053,37.334647],[68.972653,37.320014],[69.116946,37.174241],[69.239826,37.099331],[69.301664,37.115202],[69.323242,37.066613],[69.310707,36.95234],[69.337801,36.939177],[69.304614,36.851852],[69.223586,36.794665],[69.261896,36.774559],[69.206127,36.732175],[69.220886,36.66765],[69.258243,36.638715],[69.227574,36.540063],[69.180354,36.528243],[69.182105,36.403144],[69.12926,36.34762],[69.105777,36.371271],[69.118507,36.42372],[68.990714,36.470513],[68.99067,36.470548]]]}},{"type":"Feature","properties":{"adm1_name":"Khost","adm1_name1":"خوست","adm1_name2":"","adm1_name3":"","adm1_pcode":"AF14","adm0_name":"Afghanistan","adm0_name1":"افغانستان","adm0_name2":"","adm0_name3":"","adm0_pcode":"AF","valid_on":"20250601","valid_to":"00000000","area_sqkm":4109.54627995,"version":"v03","lang":"en","lang1":"prs","lang2":"","lang3":"","adm1_ref_n":"","regionname":"South Eastern","regioncode":"SE","center_lat":null,"center_lon":null,"region_nam":"جنوب ختیځه حوزه"},"geometry":{"type":"Polygon","coordinates":[[[69.353669,33.064601],[69.40444,33.14152],[69.379708,33.183859],[69.401528,33.26954],[69.539298,33.383945],[69.572153,33.450571],[69.586893,33.505217],[69.497524,33.505396],[69.484015,33.540847],[69.572386,33.691891],[69.622989,33.69857],[69.704435,33.653292],[69.83266,33.50004],[69.884005,33.59304],[69.980424,33.59026],[69.927688,33.680548],[70.046266,33.699619],[70.049116,33.731437],[70.142502,33.724321],[70.143501,33.658326],[70.20018,33.642729],[70.172679,33.518138],[70.253274,33.437102],[70.296211,33.430321],[70.328695,33.332154],[70.162604,33.217423],[70.07027,33.21885],[70.021008,33.138781],[69.939166,33.1305],[69.924319,33.102839],[69.83798,33.098021],[69.79828,33.131396],[69.709703,33.089892],[69.582306,33.101825],[69.495547,33.008294],[69.408957,33.042208],[69.409173,33.069922],[69.353316,33.060721],[69.353669,33.064601]]]}},{"type":"Feature","properties":{"adm1_name":"Hirat","adm1_name1":"هرات","adm1_name2":"","adm1_name3":"","adm1_pcode":"AF32","adm0_name":"Afghanistan","adm0_name1":"افغانستان","adm0_name2":"","adm0_name3":"","adm0_pcode":"AF","valid_on":"20250601","valid_to":"00000000","area_sqkm":61510.45393718,"version":"v03","lang":"en","lang1":"prs","lang2":"","lang3":"","adm1_ref_n":"","regionname":"Western","regioncode":"WR","center_lat":null,"center_lon":null,"region_nam":"لویدیځه حوزه"},"geometry":{"type":"Polygon","coordinates":[[[62.066112,32.882149],[61.999136,32.876469],[61.959563,32.970867],[61.903631,32.991252],[61.788662,32.885664],[61.711715,32.889835],[61.628112,32.83896],[61.476768,32.849979],[61.428855,32.814515],[61.327091,32.804296],[61.285718,32.711031],[60.89306,32.687893],[60.814965,32.828102],[60.689141,32.787938],[60.581706,33.129782],[60.633986,33.227839],[60.866558,33.420154],[60.851407,33.485899],[60.94625,33.513873],[60.898083,33.540675],[60.66459,33.534059],[60.544664,33.730872],[60.568391,33.819864],[60.471977,34.080213],[60.685393,34.314379],[60.928487,34.305771],[60.739707,34.51892],[60.853279,34.53974],[60.925889,34.621298],[61.001579,34.641591],[61.00374,34.719452],[61.080929,34.873261],[61.064126,34.928588],[61.115251,35.001985],[61.116893,35.070579],[61.143986,35.078694],[61.134649,35.128205],[61.085989,35.169506],[61.118165,35.210231],[61.091873,35.263136],[61.190633,35.292354],[61.187499,35.39923],[61.226917,35.421251],[61.280148,35.523152],[61.286323,35.614509],[61.373547,35.623314],[61.400701,35.553938],[61.588001,35.436895],[61.77912,35.411235],[61.968206,35.454032],[62.064537,35.434301],[62.153925,35.340969],[62.266493,35.295147],[62.305656,35.128828],[62.477332,35.278922],[62.628412,35.20804],[62.798598,35.300129],[62.794591,35.256346],[62.827733,35.218497],[62.815427,35.129865],[62.687263,34.99031],[62.678124,34.90046],[62.74996,34.89671],[62.775599,34.86644],[62.773951,34.804187],[62.850985,34.729281],[62.805819,34.706487],[62.797083,34.641253],[62.896038,34.573257],[62.977352,34.567445],[63.004747,34.587159],[62.991627,34.630042],[63.026107,34.648126],[63.164304,34.622763],[63.247333,34.642983],[63.27676,34.61791],[63.369415,34.636497],[63.456027,34.619936],[63.530455,34.556821],[63.694401,34.55553],[63.775849,34.512594],[64.01246,34.561181],[64.049323,34.491046],[64.132083,34.47101],[64.113792,34.371505],[64.069201,34.317516],[64.086877,34.301643],[64.041974,34.295312],[63.990168,34.223573],[63.845601,34.227038],[63.796156,34.268432],[63.706682,34.286055],[63.377682,34.285904],[63.338973,34.208771],[63.363347,34.165792],[63.460586,34.163577],[63.480877,34.134661],[63.414482,34.115892],[63.362348,34.038703],[63.460033,33.988497],[63.532238,33.899789],[63.594469,33.895576],[63.538495,33.861114],[63.592302,33.833422],[63.594915,33.797173],[63.521882,33.771597],[63.536274,33.731015],[63.488597,33.657205],[63.233844,33.616351],[63.300135,33.574061],[63.286807,33.492792],[63.218432,33.476361],[63.198745,33.403419],[63.130104,33.356376],[63.151498,33.32908],[63.105769,33.281129],[63.141227,33.26239],[63.090126,33.205564],[63.091472,33.167307],[62.914666,33.12063],[62.911212,33.156091],[62.878457,33.150893],[62.774836,33.105024],[62.715983,33.110742],[62.709211,33.075572],[62.554838,33.032279],[62.492341,33.055652],[62.3513,32.985715],[62.231769,32.987958],[62.066778,32.882454],[62.066112,32.882149]]]}},{"type":"Feature","properties":{"adm1_name":"Kunar","adm1_name1":"کنر ها","adm1_name2":"","adm1_name3":"","adm1_pcode":"AF15","adm0_name":"Afghanistan","adm0_name1":"افغانستان","adm0_name2":"","adm0_name3":"","adm0_pcode":"AF","valid_on":"20250601","valid_to":"00000000","area_sqkm":4217.33215683,"version":"v03","lang":"en","lang1":"prs","lang2":"","lang3":"","adm1_ref_n":"","regionname":"Eastern","regioncode":"ER","center_lat":null,"center_lon":null,"region_nam":"ختیځه حوزه"},"geometry":{"type":"Polygon","coordinates":[[[71.031407,34.564317],[70.853369,34.545154],[70.793543,34.57108],[70.819732,34.592137],[70.802629,34.605125],[70.6968,34.587832],[70.654198,34.620955],[70.670074,34.764122],[70.618745,34.810223],[70.629238,34.893884],[70.588397,34.943535],[70.792756,35.089003],[70.82727,35.051956],[70.80526,35.002047],[70.844997,34.985986],[70.926791,35.040476],[71.006003,35.028923],[71.054639,35.0965],[71.110414,35.072134],[71.197533,35.317099],[71.361629,35.366211],[71.471154,35.327451],[71.429891,35.274881],[71.442154,35.247802],[71.484143,35.236333],[71.53996,35.308906],[71.632042,35.225574],[71.680761,35.216264],[71.624467,35.139193],[71.531704,35.091794],[71.566378,35.026496],[71.505524,35.006805],[71.511651,34.974445],[71.474531,34.949639],[71.296157,34.877242],[71.27711,34.799892],[71.107845,34.70203],[71.087286,34.67262],[71.117382,34.628419],[71.032911,34.565255],[71.031407,34.564317]]]}},{"type":"Feature","properties":{"adm1_name":"Kabul","adm1_name1":"کابل","adm1_name2":"","adm1_name3":"","adm1_pcode":"AF01","adm0_name":"Afghanistan","adm0_name1":"افغانستان","adm0_name2":"","adm0_name3":"","adm0_pcode":"AF","valid_on":"20250601","valid_to":"00000000","area_sqkm":4687.17497254,"version":"v03","lang":"en","lang1":"prs","lang2":"","lang3":"","adm1_ref_n":"","regionname":"Capital","regioncode":"CR","center_lat":null,"center_lon":null,"region_nam":"مرکزی حوزه"},"geometry":{"type":"Polygon","coordinates":[[[69.141998,34.311202],[69.123151,34.294988],[69.049,34.333591],[68.962416,34.33813],[68.961525,34.418124],[68.874194,34.422952],[68.83281,34.494625],[68.864145,34.703731],[68.983546,34.906532],[69.054804,34.932013],[69.16438,34.879274],[69.234316,34.88766],[69.325973,34.812128],[69.359297,34.744529],[69.403919,34.737089],[69.462747,34.584024],[69.540609,34.603418],[69.535827,34.664487],[69.637708,34.633836],[69.7307,34.666981],[69.770663,34.777922],[69.878969,34.818799],[69.899179,34.854238],[69.946226,34.789486],[69.924432,34.737883],[69.870255,34.717038],[69.861863,34.619754],[69.809822,34.581077],[69.861386,34.482665],[69.927093,34.437247],[69.918416,34.399175],[69.772234,34.411085],[69.670837,34.380005],[69.62299,34.302073],[69.477611,34.200476],[69.468667,34.14666],[69.417538,34.204223],[69.373989,34.190642],[69.292405,34.366918],[69.187655,34.305495],[69.143123,34.312198],[69.141998,34.311202]]]}},{"type":"Feature","properties":{"adm1_name":"Hilmand","adm1_name1":"هلمند","adm1_name2":"","adm1_name3":"","adm1_pcode":"AF30","adm0_name":"Afghanistan","adm0_name1":"افغانستان","adm0_name2":"","adm0_name3":"","adm0_pcode":"AF","valid_on":"20250601","valid_to":"00000000","area_sqkm":60751.59834938,"version":"v03","lang":"en","lang1":"prs","lang2":"","lang3":"","adm1_ref_n":"","regionname":"Southern","regioncode":"SR","center_lat":null,"center_lon":null,"region_nam":"جنوبی حوزه"},"geometry":{"type":"Polygon","coordinates":[[[63.925145,29.43097],[63.555269,29.485686],[62.553493,29.389111],[62.654629,29.618483],[62.710451,29.831778],[62.778722,30.272311],[62.801292,30.306685],[62.923038,30.323082],[62.971864,30.40149],[63.060666,30.746359],[63.095583,30.803468],[63.14131,30.819222],[63.133188,31.053778],[63.277383,31.169039],[63.310881,31.68802],[63.285601,31.745374],[63.37291,31.814922],[63.387639,31.952693],[63.462091,32.074951],[63.554851,32.149473],[63.568957,32.210672],[63.660577,32.256193],[63.710051,32.326326],[63.819145,32.322885],[63.922066,32.4123],[63.961375,32.402145],[64.021825,32.474783],[63.991743,32.543389],[64.100917,32.57001],[64.098045,32.619621],[64.134765,32.657321],[64.245971,32.685228],[64.342061,32.767463],[64.385477,32.841724],[64.367312,32.879212],[64.400675,32.904627],[64.334773,33.004793],[64.25014,33.029006],[64.28686,33.107675],[64.390683,33.127902],[64.426029,33.173569],[64.47254,33.136139],[64.682476,33.252714],[64.709244,33.231896],[64.799556,33.253192],[64.81124,33.2018],[64.838628,33.198992],[64.890167,33.255909],[64.950544,33.23753],[65.007056,33.289854],[65.119868,33.31596],[65.161666,33.366276],[65.228814,33.360019],[65.365868,33.414936],[65.386297,33.47882],[65.525589,33.578941],[65.505608,33.670624],[65.577722,33.686464],[65.608126,33.658097],[65.636429,33.668733],[65.684123,33.597579],[65.632741,33.574031],[65.612211,33.507415],[65.638466,33.465821],[65.57613,33.374855],[65.627497,33.304358],[65.591287,33.268493],[65.508695,33.252835],[65.427258,33.294595],[65.346764,33.261687],[65.371968,33.203552],[65.348249,33.150785],[65.363898,33.108328],[65.293046,33.064134],[65.180773,32.894279],[65.211097,32.872159],[65.201517,32.793637],[65.237295,32.775049],[65.171962,32.659472],[65.233295,32.674415],[65.28867,32.647596],[65.271293,32.626353],[65.294407,32.549772],[65.262135,32.52076],[65.278387,32.434838],[65.233465,32.375804],[65.22006,32.257674],[65.138542,32.209064],[65.054186,32.256663],[65.007335,32.183883],[65.036531,32.157852],[65.000634,32.115231],[65.004993,32.069716],[64.976255,32.049462],[65.014815,31.999142],[65.138898,31.989508],[65.195529,31.952269],[65.165614,31.905422],[64.987773,31.982106],[64.918702,31.976533],[64.895782,31.915153],[64.798034,31.898581],[64.799111,31.804492],[64.691105,31.651062],[64.770662,31.295093],[64.682178,30.894836],[64.645653,30.194204],[64.506179,29.568448],[64.177918,29.482956],[64.142173,29.435934],[64.169465,29.409403],[64.126825,29.378589],[63.942205,29.428293],[63.925145,29.43097]]]}},{"type":"Feature","properties":{"adm1_name":"Ghazni","adm1_name1":"غزنی","adm1_name2":"","adm1_name3":"","adm1_pcode":"AF11","adm0_name":"Afghanistan","adm0_name1":"افغانستان","adm0_name2":"","adm0_name3":"","adm0_pcode":"AF","valid_on":"20250601","valid_to":"00000000","area_sqkm":21543.44819332,"version":"v03","lang":"en","lang1":"prs","lang2":"","lang3":"","adm1_ref_n":"","regionname":"South Eastern","regioncode":"SE","center_lat":null,"center_lon":null,"region_nam":"جنوب ختیځه حوزه"},"geometry":{"type":"Polygon","coordinates":[[[68.092592,32.380874],[68.056996,32.27489],[68.088405,32.166863],[68.073236,32.087508],[68.02719,32.05559],[68.03285,32.02523],[67.97798,32.02742],[67.8582,32.12112],[67.784047,32.140147],[67.76602,32.16876],[67.785312,32.201426],[67.72907,32.19394],[67.71992,32.2445],[67.62887,32.24838],[67.66001,32.3328],[67.71872,32.36155],[67.70439,32.40295],[67.72381,32.4166],[67.610666,32.504951],[67.671899,32.574761],[67.468883,32.730226],[67.40564,32.841085],[67.346629,32.853554],[67.372518,32.902666],[67.348819,32.935502],[67.24416,32.98673],[67.17849,32.98786],[67.1591,33.05],[67.089737,33.006231],[67.091456,32.966245],[67.040726,32.913611],[66.867619,32.950273],[66.932755,33.102104],[67.009524,33.121765],[67.042989,33.162877],[66.991701,33.238204],[67.007406,33.299326],[66.932296,33.273284],[66.872467,33.292661],[66.863642,33.407716],[66.950076,33.452747],[66.915574,33.516755],[66.824948,33.561624],[66.861273,33.603284],[67.047775,33.630267],[67.189686,33.673052],[67.230898,33.729196],[67.339997,33.741272],[67.420779,33.866074],[67.271855,33.975118],[67.3513,34.00615],[67.35079,34.03066],[67.31802,34.03559],[67.349648,34.042795],[67.32755,34.06642],[67.36449,34.11344],[67.452086,34.158633],[67.586883,34.140371],[67.579745,34.199322],[67.614366,34.206104],[67.693899,34.090819],[67.815133,34.143821],[67.954867,34.144713],[68.045108,34.214432],[68.135706,34.166188],[68.160214,34.11842],[68.107747,34.032522],[68.147988,33.965354],[68.23874,33.959548],[68.231412,33.903202],[68.260869,33.89692],[68.168451,33.814067],[68.253745,33.718293],[68.252222,33.658806],[68.391771,33.742407],[68.439777,33.678637],[68.518061,33.72581],[68.55882,33.683926],[68.584183,33.711659],[68.637721,33.678109],[68.691187,33.787683],[68.76764,33.767767],[68.78363,33.70395],[68.755147,33.702094],[68.747938,33.668972],[68.784823,33.621637],[68.774781,33.534144],[68.819668,33.413363],[68.758906,33.396459],[68.662396,33.309016],[68.635729,33.209167],[68.445202,33.084438],[68.463548,33.020263],[68.351546,32.892344],[68.289797,32.850802],[68.243285,32.865861],[68.258902,32.821757],[68.224495,32.762509],[68.056315,32.717108],[67.936979,32.789479],[67.877182,32.707388],[67.85778,32.658482],[67.8996,32.60266],[68.057231,32.502231],[68.092521,32.385015],[68.092592,32.380874]]]}},{"type":"Feature","properties":{"adm1_name":"Maidan Wardak","adm1_name1":"میدان وردک","adm1_name2":"","adm1_name3":"","adm1_pcode":"AF04","adm0_name":"Afghanistan","adm0_name1":"افغانستان","adm0_name2":"","adm0_name3":"","adm0_pcode":"AF","valid_on":"20250601","valid_to":"00000000","area_sqkm":10798.6929473,"version":"v03","lang":"en","lang1":"prs","lang2":"","lang3":"","adm1_ref_n":"","regionname":"Capital","regioncode":"CR","center_lat":null,"center_lon":null,"region_nam":"مرکزی حوزه"},"geometry":{"type":"Polygon","coordinates":[[[68.272019,33.668134],[68.250413,33.659663],[68.253745,33.718293],[68.168451,33.814067],[68.260013,33.878123],[68.231412,33.903202],[68.242119,33.953504],[68.147036,33.96602],[68.106855,34.034663],[68.159381,34.122644],[68.135706,34.166188],[68.04719,34.214551],[67.954867,34.144713],[67.815133,34.143821],[67.693899,34.090819],[67.627572,34.198073],[67.583611,34.201523],[67.590809,34.142631],[67.452086,34.158633],[67.37886,34.1224],[67.32854,34.0694],[67.349648,34.042795],[67.31802,34.03559],[67.35079,34.03066],[67.3513,34.00615],[67.252926,33.974555],[67.280945,34.091327],[67.340622,34.096562],[67.396777,34.140344],[67.35627,34.21646],[67.460432,34.265368],[67.439912,34.300431],[67.360686,34.330612],[67.439536,34.376406],[67.422404,34.412884],[67.228169,34.426161],[67.262719,34.501328],[67.326536,34.522601],[67.290209,34.63187],[67.520587,34.685194],[67.667734,34.635226],[67.715614,34.653349],[67.903332,34.601292],[67.946887,34.61218],[68.042124,34.566738],[68.072106,34.57346],[68.091974,34.631698],[68.074307,34.689221],[68.117613,34.700583],[68.139028,34.746983],[68.282218,34.797586],[68.319773,34.72324],[68.36799,34.701394],[68.367796,34.639819],[68.394297,34.621404],[68.522256,34.697935],[68.858566,34.621513],[68.833742,34.491845],[68.874194,34.422952],[68.961525,34.418124],[68.946039,34.384553],[68.96856,34.353096],[68.896811,34.268213],[68.908278,34.242751],[68.853628,34.222721],[68.822435,34.168986],[68.811486,34.050641],[68.866995,34.041858],[68.885284,34.009401],[68.813686,33.933734],[68.753009,33.915531],[68.778703,33.828485],[68.683621,33.780759],[68.637721,33.678109],[68.584183,33.711659],[68.55882,33.683926],[68.518061,33.72581],[68.439777,33.678637],[68.391771,33.742407],[68.274684,33.666516],[68.272019,33.668134]]]}},{"type":"Feature","properties":{"adm1_name":"Kapisa","adm1_name1":"کاپیسا","adm1_name2":"","adm1_name3":"","adm1_pcode":"AF02","adm0_name":"Afghanistan","adm0_name1":"افغانستان","adm0_name2":"","adm0_name3":"","adm0_pcode":"AF","valid_on":"20250601","valid_to":"00000000","area_sqkm":1879.0637747,"version":"v03","lang":"en","lang1":"prs","lang2":"","lang3":"","adm1_ref_n":"","regionname":"Capital","regioncode":"CR","center_lat":null,"center_lon":null,"region_nam":"مرکزی حوزه"},"geometry":{"type":"Polygon","coordinates":[[[69.816935,34.7992],[69.770663,34.777922],[69.7307,34.666981],[69.63827,34.633899],[69.596937,34.64908],[69.623135,34.693001],[69.565041,34.755708],[69.591525,34.830204],[69.568287,34.841652],[69.580223,34.911178],[69.417213,34.944082],[69.343185,35.012327],[69.302635,35.003365],[69.273836,35.050726],[69.287001,35.164978],[69.730505,35.159418],[69.919619,34.928181],[69.92366,34.861375],[69.818225,34.799994],[69.816935,34.7992]]]}},{"type":"Feature","properties":{"adm1_name":"Nangarhar","adm1_name1":"ننگرهار","adm1_name2":"","adm1_name3":"","adm1_pcode":"AF06","adm0_name":"Afghanistan","adm0_name1":"افغانستان","adm0_name2":"","adm0_name3":"","adm0_pcode":"AF","valid_on":"20250601","valid_to":"00000000","area_sqkm":7374.81993945,"version":"v03","lang":"en","lang1":"prs","lang2":"","lang3":"","adm1_ref_n":"","regionname":"Eastern","regioncode":"ER","center_lat":null,"center_lon":null,"region_nam":"ختیځه حوزه"},"geometry":{"type":"Polygon","coordinates":[[[70.509925,33.948663],[70.197143,33.98126],[69.995909,34.047778],[69.908271,34.03944],[69.812743,34.190274],[69.735387,34.257305],[69.557839,34.202087],[69.515933,34.155743],[69.488077,34.160509],[69.477611,34.200476],[69.62299,34.302073],[69.670837,34.380005],[69.772234,34.411085],[69.918416,34.399175],[69.927062,34.437059],[69.99334,34.46377],[70.032538,34.425317],[70.14155,34.43571],[70.500408,34.517677],[70.561061,34.625725],[70.499537,34.687609],[70.499941,34.742724],[70.547411,34.793323],[70.61974,34.809018],[70.669275,34.766977],[70.648259,34.661786],[70.666583,34.602307],[70.801953,34.605344],[70.819732,34.592137],[70.793543,34.57108],[70.853369,34.545154],[71.017123,34.562429],[71.024284,34.450631],[71.060048,34.423612],[71.108089,34.432714],[71.13211,34.406231],[71.11844,34.373537],[71.17651,34.361937],[71.119452,34.240171],[71.130481,34.165146],[71.071103,34.109882],[71.076305,34.055641],[70.913943,34.010562],[70.871708,33.971243],[70.511098,33.949146],[70.509925,33.948663]]]}},{"type":"Feature","properties":{"adm1_name":"Zabul","adm1_name1":"زابل","adm1_name2":"","adm1_name3":"","adm1_pcode":"AF26","adm0_name":"Afghanistan","adm0_name1":"افغانستان","adm0_name2":"","adm0_name3":"","adm0_pcode":"AF","valid_on":"20250601","valid_to":"00000000","area_sqkm":17018.68847549,"version":"v03","lang":"en","lang1":"prs","lang2":"","lang3":"","adm1_ref_n":"","regionname":"Southern","regioncode":"SR","center_lat":null,"center_lon":null,"region_nam":"جنوبی حوزه"},"geometry":{"type":"Polygon","coordinates":[[[66.719886,31.879394],[66.64874,31.866974],[66.562679,31.776075],[66.487935,31.751477],[66.39827,31.767093],[66.392453,31.742073],[66.263892,31.709822],[66.236416,31.760203],[66.192735,31.761418],[66.189627,31.848338],[66.30568,31.897678],[66.345758,31.944316],[66.342612,32.015319],[66.298611,32.05815],[66.347709,32.093642],[66.34504,32.129019],[66.304408,32.191066],[66.418971,32.294364],[66.446756,32.353856],[66.52129,32.398713],[66.49426,32.42779],[66.525696,32.453373],[66.498605,32.535262],[66.46208,32.556693],[66.386071,32.522064],[66.348119,32.556975],[66.320287,32.545348],[66.319716,32.587036],[66.4017,32.612525],[66.412884,32.646868],[66.595744,32.652226],[66.676036,32.688337],[66.683114,32.735905],[66.743175,32.786485],[66.834528,32.819131],[66.878614,32.806929],[66.912595,32.843242],[66.943424,32.826829],[66.970095,32.847382],[66.951382,32.891953],[67.015973,32.881383],[67.002505,32.924766],[67.04834,32.918561],[67.091932,32.967197],[67.089737,33.006231],[67.1591,33.05],[67.17849,32.98786],[67.24416,32.98673],[67.348819,32.935502],[67.372518,32.902666],[67.346629,32.853554],[67.40564,32.841085],[67.468883,32.730226],[67.671482,32.575773],[67.610666,32.504951],[67.72381,32.4166],[67.70439,32.40295],[67.71872,32.36155],[67.66001,32.3328],[67.63073,32.24588],[67.69519,32.25894],[67.72907,32.19394],[67.785312,32.201426],[67.76602,32.16876],[67.784047,32.140147],[67.8582,32.12112],[67.97798,32.02742],[68.03285,32.02523],[68.171228,31.83539],[68.070296,31.697227],[67.974336,31.64037],[67.857404,31.623762],[67.714446,31.513279],[67.639084,31.532924],[67.466638,31.498789],[67.386652,31.591267],[67.40959,31.625055],[67.311576,31.696546],[67.329968,31.721341],[67.234176,31.686064],[67.173339,31.758167],[67.103814,31.736072],[67.020533,31.836249],[66.967519,31.781978],[66.88901,31.771832],[66.797505,31.802907],[66.744889,31.777737],[66.678522,31.824326],[66.73537,31.84085],[66.721361,31.879299],[66.719886,31.879394]]]}},{"type":"Feature","properties":{"adm1_name":"Takhar","adm1_name1":"تخار","adm1_name2":"","adm1_name3":"","adm1_pcode":"AF18","adm0_name":"Afghanistan","adm0_name1":"افغانستان","adm0_name2":"","adm0_name3":"","adm0_pcode":"AF","valid_on":"20250601","valid_to":"00000000","area_sqkm":12422.16970896,"version":"v03","lang":"en","lang1":"prs","lang2":"","lang3":"","adm1_ref_n":"","regionname":"North Eastern","regioncode":"NE","center_lat":null,"center_lon":null,"region_nam":"سهیل ختیځه حوزه"},"geometry":{"type":"Polygon","coordinates":[[[69.664639,36.352966],[69.6213,36.292823],[69.530377,36.309394],[69.441122,36.243997],[69.297069,36.228988],[69.12926,36.34762],[69.182105,36.403144],[69.180354,36.528243],[69.227574,36.540063],[69.258101,36.638002],[69.220886,36.66765],[69.206127,36.732175],[69.261896,36.774559],[69.223586,36.794665],[69.304614,36.851852],[69.337801,36.939177],[69.310707,36.95234],[69.323242,37.066613],[69.301664,37.115202],[69.401849,37.16628],[69.454211,37.233952],[69.413023,37.240923],[69.40711,37.311546],[69.37962,37.324695],[69.378448,37.431495],[69.537158,37.591633],[69.809528,37.56805],[69.838082,37.602517],[69.913725,37.620291],[69.9522,37.567372],[70.075837,37.539834],[70.009512,37.484621],[69.962174,37.380659],[70.070676,37.423184],[70.074873,37.385936],[70.034235,37.369645],[70.009833,37.288913],[70.052139,37.163354],[70.007446,37.114621],[70.091719,37.094466],[70.131741,37.044084],[70.042667,36.965436],[70.009385,36.790025],[69.983473,36.782851],[70.043543,36.706434],[70.044756,36.667994],[70.020843,36.660249],[70.094546,36.619631],[70.11382,36.571305],[70.118058,36.4846],[70.083885,36.438846],[70.189016,36.331671],[70.419407,36.324441],[70.485254,36.271707],[70.466703,36.195537],[70.489162,36.129808],[70.454898,36.11672],[70.422674,36.037799],[70.447938,35.989598],[70.433665,35.955756],[70.302612,35.858906],[70.194796,35.890052],[70.181917,35.850493],[70.120184,35.818986],[70.045381,35.823298],[69.983577,35.787551],[69.94867,35.850035],[69.970795,35.908394],[69.923301,35.937709],[69.872404,36.040073],[69.773466,36.098537],[69.77897,36.220438],[69.718161,36.238559],[69.704532,36.326446],[69.665975,36.354614],[69.664639,36.352966]]]}},{"type":"Feature","properties":{"adm1_name":"Nimroz","adm1_name1":"نیمروز","adm1_name2":"","adm1_name3":"","adm1_pcode":"AF34","adm0_name":"Afghanistan","adm0_name1":"افغانستان","adm0_name2":"","adm0_name3":"","adm0_pcode":"AF","valid_on":"20250601","valid_to":"00000000","area_sqkm":40262.22412408,"version":"v03","lang":"en","lang1":"prs","lang2":"","lang3":"","adm1_ref_n":"","regionname":"Southern","regioncode":"SR","center_lat":null,"center_lon":null,"region_nam":"جنوبی حوزه"},"geometry":{"type":"Polygon","coordinates":[[[62.506408,29.383871],[60.873167,29.858701],[61.804147,30.832809],[61.782613,30.92186],[61.83273,30.972959],[61.839293,31.036144],[61.771753,31.205719],[61.776393,31.302355],[61.706615,31.375791],[61.615077,31.394294],[61.646082,31.427797],[61.629735,31.453186],[61.684653,31.487153],[61.654477,31.600058],[61.733833,31.605152],[61.7702,31.673703],[61.87475,31.71832],[61.9813,31.80759],[61.95106,31.87635],[62.01041,31.92052],[61.957893,31.926609],[61.993971,31.949323],[61.975811,32.036098],[62.06925,32.015925],[62.456556,32.054537],[62.537111,32.109381],[62.632895,32.047546],[62.737987,31.926997],[62.768131,31.961714],[62.959945,31.9857],[63.140112,32.070325],[63.178421,32.106969],[63.218485,32.243425],[63.514297,32.197273],[63.568957,32.210672],[63.576425,32.18323],[63.458523,32.069953],[63.383165,31.94208],[63.37291,31.814922],[63.285601,31.745374],[63.310881,31.68802],[63.277383,31.169039],[63.133188,31.053778],[63.14131,30.819222],[63.095583,30.803468],[63.060666,30.746359],[62.971864,30.40149],[62.923038,30.323082],[62.801292,30.306685],[62.781555,30.279237],[62.753824,30.206517],[62.759135,30.064489],[62.654629,29.618483],[62.534818,29.38706],[62.506408,29.383871]]]}},{"type":"Feature","properties":{"adm1_name":"Laghman","adm1_name1":"لغمان","adm1_name2":"","adm1_name3":"","adm1_pcode":"AF07","adm0_name":"Afghanistan","adm0_name1":"افغانستان","adm0_name2":"","adm0_name3":"","adm0_pcode":"AF","valid_on":"20250601","valid_to":"00000000","area_sqkm":3900.19829833,"version":"v03","lang":"en","lang1":"prs","lang2":"","lang3":"","adm1_ref_n":"","regionname":"Eastern","regioncode":"ER","center_lat":null,"center_lon":null,"region_nam":"ختیځه حوزه"},"geometry":{"type":"Polygon","coordinates":[[[70.496439,34.520677],[70.303257,34.460054],[70.032538,34.425317],[69.99462,34.46357],[69.927062,34.437059],[69.861386,34.482665],[69.809822,34.581077],[69.861863,34.619754],[69.870255,34.717038],[69.924432,34.737883],[69.946226,34.789486],[69.912658,34.843606],[69.919619,34.928181],[69.806154,35.075363],[69.820415,35.138571],[69.908823,35.15083],[69.968617,35.218344],[70.021751,35.164504],[70.028116,35.099553],[70.178647,35.082107],[70.264495,34.943091],[70.529603,34.919559],[70.588397,34.943535],[70.629238,34.893884],[70.628667,34.837277],[70.499941,34.742724],[70.50797,34.658266],[70.561061,34.625725],[70.498454,34.519569],[70.496439,34.520677]]]}},{"type":"Feature","properties":{"adm1_name":"Baghlan","adm1_name1":"بغلان","adm1_name2":"","adm1_name3":"","adm1_pcode":"AF09","adm0_name":"Afghanistan","adm0_name1":"افغانستان","adm0_name2":"","adm0_name3":"","adm0_pcode":"AF","valid_on":"20250601","valid_to":"00000000","area_sqkm":17072.73263855,"version":"v03","lang":"en","lang1":"prs","lang2":"","lang3":"","adm1_ref_n":"","regionname":"North Eastern","regioncode":"NE","center_lat":null,"center_lon":null,"region_nam":"سهیل ختیځه حوزه"},"geometry":{"type":"Polygon","coordinates":[[[68.708052,35.17849],[68.677693,35.132888],[68.597583,35.117984],[68.609561,35.070451],[68.436388,35.077717],[68.372918,35.053265],[68.313344,35.077505],[68.175898,35.004262],[68.123357,35.045411],[68.021102,35.058092],[68.004226,35.138283],[68.03468,35.2404],[68.065285,35.249881],[68.061383,35.296058],[68.115439,35.310254],[68.086145,35.454656],[68.209976,35.59286],[68.13558,35.633027],[68.150513,35.698292],[68.315507,35.842573],[68.348852,35.998441],[68.54264,36.16942],[68.51435,36.21663],[68.51483,36.33483],[68.47359,36.36682],[68.508779,36.541409],[68.58899,36.531939],[68.693054,36.455592],[68.846776,36.404594],[69.011535,36.481541],[69.119342,36.422955],[69.108896,36.355916],[69.2946,36.229048],[69.441122,36.243997],[69.530377,36.309394],[69.6213,36.292823],[69.628825,36.330105],[69.684965,36.357168],[69.702876,36.257937],[69.7328,36.228355],[69.76646,36.239874],[69.784682,36.206639],[69.773466,36.098537],[69.872404,36.040073],[69.923301,35.937709],[69.971294,35.906657],[69.94867,35.850035],[69.971435,35.810766],[69.912711,35.777037],[69.881478,35.718485],[69.813815,35.715285],[69.751257,35.5423],[69.68885,35.539173],[69.675275,35.504478],[69.616431,35.496289],[69.580973,35.458805],[69.482366,35.466234],[69.433509,35.418904],[69.268016,35.393631],[69.250154,35.421466],[69.179651,35.419442],[69.062234,35.357143],[69.026712,35.29662],[68.979319,35.304534],[68.946351,35.269556],[68.854137,35.29572],[68.800179,35.227104],[68.708602,35.179295],[68.708052,35.17849]]]}},{"type":"Feature","properties":{"adm1_name":"Badghis","adm1_name1":"بادغیس","adm1_name2":"","adm1_name3":"","adm1_pcode":"AF31","adm0_name":"Afghanistan","adm0_name1":"افغانستان","adm0_name2":"","adm0_name3":"","adm0_pcode":"AF","valid_on":"20250601","valid_to":"00000000","area_sqkm":19285.89923712,"version":"v03","lang":"en","lang1":"prs","lang2":"","lang3":"","adm1_ref_n":"","regionname":"Western","regioncode":"WR","center_lat":null,"center_lon":null,"region_nam":"لویدیځه حوزه"},"geometry":{"type":"Polygon","coordinates":[[[63.199086,34.625702],[63.024854,34.647922],[62.991627,34.630042],[63.004747,34.587159],[62.955748,34.567635],[62.826522,34.602944],[62.797083,34.641253],[62.805819,34.706487],[62.850881,34.727885],[62.83387,34.768503],[62.773951,34.804187],[62.750567,34.896294],[62.678124,34.90046],[62.687263,34.99031],[62.815427,35.129865],[62.827733,35.218497],[62.794591,35.256346],[62.799511,35.302185],[63.02376,35.40166],[63.0143,35.4182],[63.099319,35.418403],[63.130445,35.543854],[63.105966,35.550538],[63.094814,35.617763],[63.249047,35.689583],[63.099571,35.81713],[63.12091,35.863277],[63.306033,35.858322],[63.535359,35.903029],[63.570664,35.951442],[63.973732,36.03252],[63.912401,35.948423],[63.932274,35.838645],[63.863584,35.830336],[63.871507,35.78829],[63.823287,35.775513],[63.822181,35.747744],[63.976038,35.675158],[63.978388,35.49313],[64.230092,35.484017],[64.27774,35.455142],[64.263499,35.420735],[64.345948,35.387113],[64.424665,35.416762],[64.389127,35.351015],[64.425104,35.309555],[64.397378,35.201158],[64.438567,35.203585],[64.447802,35.147763],[64.687287,35.190414],[64.801685,35.083632],[64.784521,35.035172],[64.754277,35.028097],[64.781098,35.00018],[64.73459,34.993213],[64.73347,34.88904],[64.69314,34.85971],[64.67708,34.78813],[64.61027,34.77206],[64.520372,34.697248],[64.509808,34.605116],[64.292468,34.622862],[64.25822,34.581765],[64.119609,34.615559],[64.005566,34.556719],[63.812554,34.511899],[63.651535,34.562767],[63.530455,34.556821],[63.456027,34.619936],[63.375697,34.635355],[63.200448,34.625929],[63.199086,34.625702]]]}},{"type":"Feature","properties":{"adm1_name":"Bamyan","adm1_name1":"بامیان","adm1_name2":"","adm1_name3":"","adm1_pcode":"AF10","adm0_name":"Afghanistan","adm0_name1":"افغانستان","adm0_name2":"","adm0_name3":"","adm0_pcode":"AF","valid_on":"20250601","valid_to":"00000000","area_sqkm":18026.01031724,"version":"v03","lang":"en","lang1":"prs","lang2":"","lang3":"","adm1_ref_n":"","regionname":"Central Highland","regioncode":"CH","center_lat":null,"center_lon":null,"region_nam":"لوړه مرکزی حوزه"},"geometry":{"type":"Polygon","coordinates":[[[67.251805,33.975112],[67.228477,33.941325],[67.144998,33.941604],[67.010946,33.834535],[66.95365,33.86791],[66.966,33.911627],[66.928762,33.977597],[66.809551,34.017156],[66.656849,33.970935],[66.502305,34.055787],[66.49775,34.19775],[66.52581,34.25428],[66.59897,34.294],[66.59104,34.31947],[66.497344,34.331453],[66.512721,34.373269],[66.590786,34.5231],[66.690676,34.563622],[66.726368,34.636553],[66.699894,34.676518],[66.591605,34.712781],[66.563801,34.74162],[66.582111,34.794694],[66.414073,34.915368],[66.437212,35.001138],[66.277769,35.132419],[66.283921,35.182055],[66.32908,35.198419],[66.56945,35.169623],[66.674444,35.201121],[66.735566,35.311409],[66.884283,35.404386],[66.869243,35.361807],[66.962903,35.345655],[67.322474,35.451257],[67.376429,35.41772],[67.547189,35.475388],[67.732515,35.446753],[67.816139,35.481775],[67.893259,35.479097],[67.910798,35.445249],[68.101507,35.467964],[68.086483,35.428397],[68.117163,35.380506],[68.093627,35.332674],[68.115439,35.310254],[68.063409,35.298309],[68.065078,35.249338],[68.03468,35.2404],[68.004226,35.140995],[68.019536,35.061098],[68.194695,35.014256],[68.28111,34.879614],[68.23445,34.829574],[68.265139,34.791954],[68.139028,34.746983],[68.117613,34.700583],[68.074307,34.689221],[68.091974,34.631698],[68.072106,34.57346],[68.042124,34.566738],[67.946887,34.61218],[67.903332,34.601292],[67.715614,34.653349],[67.667734,34.635226],[67.520587,34.685194],[67.461072,34.654766],[67.300576,34.642907],[67.326536,34.522601],[67.262719,34.501328],[67.228169,34.426161],[67.422404,34.412884],[67.439536,34.376406],[67.360686,34.330612],[67.439912,34.300431],[67.460432,34.265368],[67.35627,34.21646],[67.396777,34.140344],[67.340622,34.096562],[67.280945,34.091327],[67.25264,33.97459],[67.251805,33.975112]]]}}]}